{
  "links" : {
    "next" : "https://api.nasa.gov/neo/rest/v1/feed?start_date=2007-09-23&end_date=2007-09-23&detailed=true&api_key=t0TVs3DtDT2H8Oy2Zy8m2eVrNsAVKAexjcZXUckd",
    "prev" : "https://api.nasa.gov/neo/rest/v1/feed?start_date=2007-09-21&end_date=2007-09-21&detailed=true&api_key=t0TVs3DtDT2H8Oy2Zy8m2eVrNsAVKAexjcZXUckd",
    "self" : "https://api.nasa.gov/neo/rest/v1/feed?start_date=2007-09-22&end_date=2007-09-22&detailed=true&api_key=t0TVs3DtDT2H8Oy2Zy8m2eVrNsAVKAexjcZXUckd"
  },
  "element_count" : 5,
  "near_earth_objects" : {
    "2007-09-22" : [ {
      "links" : {
        "self" : "https://api.nasa.gov/neo/rest/v1/neo/3767015?api_key=t0TVs3DtDT2H8Oy2Zy8m2eVrNsAVKAexjcZXUckd"
      },
      "neo_reference_id" : "3767015",
      "name" : "(2017 BZ6)",
      "nasa_jpl_url" : "http://ssd.jpl.nasa.gov/sbdb.cgi?sstr=3767015",
      "absolute_magnitude_h" : 26.1,
      "estimated_diameter" : {
        "kilometers" : {
          "estimated_diameter_min" : 0.0160160338,
          "estimated_diameter_max" : 0.0358129403
        },
        "meters" : {
          "estimated_diameter_min" : 16.0160337979,
          "estimated_diameter_max" : 35.8129403019
        },
        "miles" : {
          "estimated_diameter_min" : 0.0099518989,
          "estimated_diameter_max" : 0.0222531225
        },
        "feet" : {
          "estimated_diameter_min" : 52.5460443254,
          "estimated_diameter_max" : 117.4965270602
        }
      },
      "is_potentially_hazardous_asteroid" : false,
      "close_approach_data" : [ {
        "close_approach_date" : "2007-09-22",
        "epoch_date_close_approach" : 1190444400000,
        "relative_velocity" : {
          "kilometers_per_second" : "11.6133465262",
          "kilometers_per_hour" : "41808.0474942887",
          "miles_per_hour" : "25977.8948444373"
        },
        "miss_distance" : {
          "astronomical" : "0.3416194117",
          "lunar" : "132.8899536133",
          "kilometers" : "51105536",
          "miles" : "31755508"
        },
        "orbiting_body" : "Earth"
      } ],
      "orbital_data" : {
        "orbit_id" : "13",
        "orbit_determination_date" : "2017-07-31 06:20:48",
        "orbit_uncertainty" : "4",
        "minimum_orbit_intersection" : ".0392348",
        "jupiter_tisserand_invariant" : "5.698",
        "epoch_osculation" : "2458000.5",
        "eccentricity" : ".09316376522212844",
        "semi_major_axis" : "1.085621626559302",
        "inclination" : "5.825698101617188",
        "ascending_node_longitude" : "315.0842739497896",
        "orbital_period" : "413.1579903355006",
        "perihelion_distance" : ".9844810282224664",
        "perihelion_argument" : "117.5566454458557",
        "aphelion_distance" : "1.186762224896138",
        "perihelion_time" : "2458140.153766232048",
        "mean_anomaly" : "238.3144535030972",
        "mean_motion" : ".8713373780031842",
        "equinox" : "J2000"
      }
    }, {
      "links" : {
        "self" : "https://api.nasa.gov/neo/rest/v1/neo/3764824?api_key=t0TVs3DtDT2H8Oy2Zy8m2eVrNsAVKAexjcZXUckd"
      },
      "neo_reference_id" : "3764824",
      "name" : "(2016 WB8)",
      "nasa_jpl_url" : "http://ssd.jpl.nasa.gov/sbdb.cgi?sstr=3764824",
      "absolute_magnitude_h" : 25.9,
      "estimated_diameter" : {
        "kilometers" : {
          "estimated_diameter_min" : 0.0175612318,
          "estimated_diameter_max" : 0.0392681082
        },
        "meters" : {
          "estimated_diameter_min" : 17.561231848,
          "estimated_diameter_max" : 39.2681081809
        },
        "miles" : {
          "estimated_diameter_min" : 0.0109120402,
          "estimated_diameter_max" : 0.0244000636
        },
        "feet" : {
          "estimated_diameter_min" : 57.6155918963,
          "estimated_diameter_max" : 128.8323800441
        }
      },
      "is_potentially_hazardous_asteroid" : false,
      "close_approach_data" : [ {
        "close_approach_date" : "2007-09-22",
        "epoch_date_close_approach" : 1190444400000,
        "relative_velocity" : {
          "kilometers_per_second" : "8.1804407879",
          "kilometers_per_hour" : "29449.5868363491",
          "miles_per_hour" : "18298.827998397"
        },
        "miss_distance" : {
          "astronomical" : "0.4643270002",
          "lunar" : "180.6231994629",
          "kilometers" : "69462336",
          "miles" : "43161892"
        },
        "orbiting_body" : "Earth"
      } ],
      "orbital_data" : {
        "orbit_id" : "10",
        "orbit_determination_date" : "2017-07-13 16:31:47",
        "orbit_uncertainty" : "2",
        "minimum_orbit_intersection" : ".00146229",
        "jupiter_tisserand_invariant" : "5.318",
        "epoch_osculation" : "2458000.5",
        "eccentricity" : ".2909704679496219",
        "semi_major_axis" : "1.178964056195741",
        "inclination" : "6.677593016001047",
        "ascending_node_longitude" : "72.50206040793417",
        "orbital_period" : "467.5728374596177",
        "perihelion_distance" : ".8359203330686817",
        "perihelion_argument" : "71.50589113763144",
        "aphelion_distance" : "1.5220077793228",
        "perihelion_time" : "2457782.469834578715",
        "mean_anomaly" : "167.8687324484314",
        "mean_motion" : ".7699335187132029",
        "equinox" : "J2000"
      }
    } ]
  }
}